[{"unique_id":"Bloomington, IL Accounting","state":"IL","msa":"Bloomington","state_and_msa":"Bloomington, IL","area_code":14010,"occupation":"Accounting","median_hourly_wage":28.73,"hires":1,"hours":40,"savings":0,"annual_cost":0,"occupation_slug":"accounting"},{"unique_id":"Bloomington, IL Engineering","state":"IL","msa":"Bloomington","state_and_msa":"Bloomington, IL","area_code":14010,"occupation":"Engineering","median_hourly_wage":37.686667,"hires":1,"hours":40,"savings":0,"annual_cost":0,"occupation_slug":"engineering"},{"unique_id":"Bloomington, IL Graphics & Design","state":"IL","msa":"Bloomington","state_and_msa":"Bloomington, IL","area_code":14010,"occupation":"Graphics & Design","median_hourly_wage":21.68,"hires":1,"hours":40,"savings":0,"annual_cost":0,"occupation_slug":"graphics_and_design"},{"unique_id":"Bloomington, IL Human Resources","state":"IL","msa":"Bloomington","state_and_msa":"Bloomington, IL","area_code":14010,"occupation":"Human Resources","median_hourly_wage":24.38569,"hires":1,"hours":40,"savings":0,"annual_cost":0,"occupation_slug":"human_resources"},{"unique_id":"Bloomington, IL Marketing","state":"IL","msa":"Bloomington","state_and_msa":"Bloomington, IL","area_code":14010,"occupation":"Marketing","median_hourly_wage":32.634512,"hires":1,"hours":40,"savings":0,"annual_cost":0,"occupation_slug":"marketing"},{"unique_id":"Bloomington, IL Network & System Administration","state":"IL","msa":"Bloomington","state_and_msa":"Bloomington, IL","area_code":14010,"occupation":"Network & System Administration","median_hourly_wage":34.83,"hires":1,"hours":40,"savings":0,"annual_cost":0,"occupation_slug":"network_and_system_administration"},{"unique_id":"Bloomington, IL Personal\/Virtual Assistant","state":"IL","msa":"Bloomington","state_and_msa":"Bloomington, IL","area_code":14010,"occupation":"Personal\/Virtual Assistant","median_hourly_wage":16.28,"hires":1,"hours":40,"savings":0,"annual_cost":0,"occupation_slug":"personalvirtual_assistant"},{"unique_id":"Bloomington, IL Technical Support","state":"IL","msa":"Bloomington","state_and_msa":"Bloomington, IL","area_code":14010,"occupation":"Technical Support","median_hourly_wage":25.77,"hires":1,"hours":40,"savings":0,"annual_cost":0,"occupation_slug":"technical_support"}]