[{"unique_id":"Wichita Falls, TX Accounting","state":"TX","msa":"Wichita Falls","state_and_msa":"Wichita Falls, TX","area_code":48660,"occupation":"Accounting","median_hourly_wage":30.52,"hires":1,"hours":40,"savings":0,"annual_cost":0,"occupation_slug":"accounting"},{"unique_id":"Wichita Falls, TX Customer Service","state":"TX","msa":"Wichita Falls","state_and_msa":"Wichita Falls, TX","area_code":48660,"occupation":"Customer Service","median_hourly_wage":15.9,"hires":1,"hours":40,"savings":0,"annual_cost":0,"occupation_slug":"customer_service"},{"unique_id":"Wichita Falls, TX Engineering","state":"TX","msa":"Wichita Falls","state_and_msa":"Wichita Falls, TX","area_code":48660,"occupation":"Engineering","median_hourly_wage":40.462,"hires":1,"hours":40,"savings":0,"annual_cost":0,"occupation_slug":"engineering"},{"unique_id":"Wichita Falls, TX Human Resources","state":"TX","msa":"Wichita Falls","state_and_msa":"Wichita Falls, TX","area_code":48660,"occupation":"Human Resources","median_hourly_wage":21.911111,"hires":1,"hours":40,"savings":0,"annual_cost":0,"occupation_slug":"human_resources"},{"unique_id":"Wichita Falls, TX Law","state":"TX","msa":"Wichita Falls","state_and_msa":"Wichita Falls, TX","area_code":48660,"occupation":"Law","median_hourly_wage":39.88,"hires":1,"hours":40,"savings":0,"annual_cost":0,"occupation_slug":"law"},{"unique_id":"Wichita Falls, TX Management Consulting","state":"TX","msa":"Wichita Falls","state_and_msa":"Wichita Falls, TX","area_code":48660,"occupation":"Management Consulting","median_hourly_wage":30.82,"hires":1,"hours":40,"savings":0,"annual_cost":0,"occupation_slug":"management_consulting"},{"unique_id":"Wichita Falls, TX Marketing","state":"TX","msa":"Wichita Falls","state_and_msa":"Wichita Falls, TX","area_code":48660,"occupation":"Marketing","median_hourly_wage":20.88,"hires":1,"hours":40,"savings":0,"annual_cost":0,"occupation_slug":"marketing"},{"unique_id":"Wichita Falls, TX Network & System Administration","state":"TX","msa":"Wichita Falls","state_and_msa":"Wichita Falls, TX","area_code":48660,"occupation":"Network & System Administration","median_hourly_wage":27.05,"hires":1,"hours":40,"savings":0,"annual_cost":0,"occupation_slug":"network_and_system_administration"},{"unique_id":"Wichita Falls, TX Personal\/Virtual Assistant","state":"TX","msa":"Wichita Falls","state_and_msa":"Wichita Falls, TX","area_code":48660,"occupation":"Personal\/Virtual Assistant","median_hourly_wage":13.46,"hires":1,"hours":40,"savings":0,"annual_cost":0,"occupation_slug":"personalvirtual_assistant"},{"unique_id":"Wichita Falls, TX Public Relations","state":"TX","msa":"Wichita Falls","state_and_msa":"Wichita Falls, TX","area_code":48660,"occupation":"Public Relations","median_hourly_wage":22.35,"hires":1,"hours":40,"savings":0,"annual_cost":0,"occupation_slug":"public_relations"},{"unique_id":"Wichita Falls, TX Technical Support","state":"TX","msa":"Wichita Falls","state_and_msa":"Wichita Falls, TX","area_code":48660,"occupation":"Technical Support","median_hourly_wage":23.41,"hires":1,"hours":40,"savings":0,"annual_cost":0,"occupation_slug":"technical_support"}]