[{"area_code":10180,"state_and_msa":"Abilene, TX"},{"area_code":10420,"state_and_msa":"Akron, OH"},{"area_code":200006,"state_and_msa":"Alaska nonmetropolitan area, AK"},{"area_code":10500,"state_and_msa":"Albany, GA"},{"area_code":10540,"state_and_msa":"Albany, OR"},{"area_code":10580,"state_and_msa":"Albany-Schenectady-Troy, NY"},{"area_code":10740,"state_and_msa":"Albuquerque, NM"},{"area_code":10780,"state_and_msa":"Alexandria, LA"},{"area_code":10900,"state_and_msa":"Allentown-Bethlehem-Easton, PA"},{"area_code":11020,"state_and_msa":"Altoona, PA"},{"area_code":11100,"state_and_msa":"Amarillo, TX"},{"area_code":11180,"state_and_msa":"Ames, IA"},{"area_code":11260,"state_and_msa":"Anchorage, AK"},{"area_code":11460,"state_and_msa":"Ann Arbor, MI"},{"area_code":11500,"state_and_msa":"Anniston-Oxford-Jacksonville, AL"},{"area_code":11540,"state_and_msa":"Appleton, WI"},{"area_code":400001,"state_and_msa":"Arizona nonmetropolitan area, AZ"},{"area_code":11700,"state_and_msa":"Asheville, NC"},{"area_code":12020,"state_and_msa":"Athens-Clarke County, GA"},{"area_code":12060,"state_and_msa":"Atlanta-Sandy Springs-Roswell, GA"},{"area_code":12100,"state_and_msa":"Atlantic City-Hammonton, NJ"},{"area_code":12220,"state_and_msa":"Auburn-Opelika, AL"},{"area_code":12260,"state_and_msa":"Augusta-Richmond County, GA"},{"area_code":12420,"state_and_msa":"Austin-Round Rock, TX"},{"area_code":12540,"state_and_msa":"Bakersfield, CA"},{"area_code":2600004,"state_and_msa":"Balance of Lower Peninsula of Michigan nonmetropolitan area, MI"},{"area_code":12580,"state_and_msa":"Baltimore-Columbia-Towson, MD"},{"area_code":70750,"state_and_msa":"Bangor, ME"},{"area_code":70900,"state_and_msa":"Barnstable Town, MA"},{"area_code":12940,"state_and_msa":"Baton Rouge, LA"},{"area_code":12980,"state_and_msa":"Battle Creek, MI"},{"area_code":13020,"state_and_msa":"Bay City, MI"},{"area_code":13140,"state_and_msa":"Beaumont-Port Arthur, TX"},{"area_code":13220,"state_and_msa":"Beckley, WV"},{"area_code":13380,"state_and_msa":"Bellingham, WA"},{"area_code":13460,"state_and_msa":"Bend-Redmond, OR"},{"area_code":4800003,"state_and_msa":"Big Thicket Region of Texas nonmetropolitan area, TX"},{"area_code":13740,"state_and_msa":"Billings, MT"},{"area_code":13780,"state_and_msa":"Binghamton, NY"},{"area_code":13820,"state_and_msa":"Birmingham-Hoover, AL"},{"area_code":13900,"state_and_msa":"Bismarck, ND"},{"area_code":13980,"state_and_msa":"Blacksburg-Christiansburg-Radford, VA"},{"area_code":14010,"state_and_msa":"Bloomington, IL"},{"area_code":14020,"state_and_msa":"Bloomington, IN"},{"area_code":14100,"state_and_msa":"Bloomsburg-Berwick, PA"},{"area_code":14260,"state_and_msa":"Boise City, ID"},{"area_code":4800005,"state_and_msa":"Border Region of Texas nonmetropolitan area, TX"},{"area_code":71650,"state_and_msa":"Boston-Cambridge-Nashua, MA"},{"area_code":14500,"state_and_msa":"Boulder, CO"},{"area_code":14540,"state_and_msa":"Bowling Green, KY"},{"area_code":14740,"state_and_msa":"Bremerton-Silverdale, WA"},{"area_code":71950,"state_and_msa":"Bridgeport-Stamford-Norwalk, CT"},{"area_code":15180,"state_and_msa":"Brownsville-Harlingen, TX"},{"area_code":15260,"state_and_msa":"Brunswick, GA"},{"area_code":15380,"state_and_msa":"Buffalo-Cheektowaga-Niagara Falls, NY"},{"area_code":15500,"state_and_msa":"Burlington, NC"},{"area_code":72400,"state_and_msa":"Burlington-South Burlington, VT"},{"area_code":15680,"state_and_msa":"California-Lexington Park, MD"},{"area_code":15940,"state_and_msa":"Canton-Massillon, OH"},{"area_code":15980,"state_and_msa":"Cape Coral-Fort Myers, FL"},{"area_code":16020,"state_and_msa":"Cape Girardeau, MO"},{"area_code":3600001,"state_and_msa":"Capital\/Northern New York nonmetropolitan area, NY"},{"area_code":16060,"state_and_msa":"Carbondale-Marion, IL"},{"area_code":16180,"state_and_msa":"Carson City, NV"},{"area_code":16220,"state_and_msa":"Casper, WY"},{"area_code":16300,"state_and_msa":"Cedar Rapids, IA"},{"area_code":3600006,"state_and_msa":"Central East New York nonmetropolitan area, NY"},{"area_code":1800002,"state_and_msa":"Central Indiana nonmetropolitan area, IN"},{"area_code":2100003,"state_and_msa":"Central Kentucky nonmetropolitan area, KY"},{"area_code":2200002,"state_and_msa":"Central Louisiana nonmetropolitan area, LA"},{"area_code":2900001,"state_and_msa":"Central Missouri nonmetropolitan area, MO"},{"area_code":3300002,"state_and_msa":"Central New Hampshire nonmetropolitan area, NH"},{"area_code":4100007,"state_and_msa":"Central Oregon nonmetropolitan area, OR"},{"area_code":4900007,"state_and_msa":"Central Utah nonmetropolitan area, UT"},{"area_code":16540,"state_and_msa":"Chambersburg-Waynesboro, PA"},{"area_code":16580,"state_and_msa":"Champaign-Urbana, IL"},{"area_code":16620,"state_and_msa":"Charleston, WV"},{"area_code":16700,"state_and_msa":"Charleston-North Charleston, SC"},{"area_code":16740,"state_and_msa":"Charlotte-Concord-Gastonia, NC"},{"area_code":16820,"state_and_msa":"Charlottesville, VA"},{"area_code":16860,"state_and_msa":"Chattanooga, TN"},{"area_code":16940,"state_and_msa":"Cheyenne, WY"},{"area_code":16980,"state_and_msa":"Chicago-Naperville-Elgin, IL"},{"area_code":17020,"state_and_msa":"Chico, CA"},{"area_code":17140,"state_and_msa":"Cincinnati, OH"},{"area_code":17300,"state_and_msa":"Clarksville, TN"},{"area_code":17420,"state_and_msa":"Cleveland, TN"},{"area_code":17460,"state_and_msa":"Cleveland-Elyria, OH"},{"area_code":4100006,"state_and_msa":"Coast Oregon nonmetropolitan area, OR"},{"area_code":4800006,"state_and_msa":"Coastal Plains Region of Texas nonmetropolitan area, TX"},{"area_code":17660,"state_and_msa":"Coeur d'Alene, ID"},{"area_code":17780,"state_and_msa":"College Station-Bryan, TX"},{"area_code":17820,"state_and_msa":"Colorado Springs, CO"},{"area_code":17860,"state_and_msa":"Columbia, MO"},{"area_code":17900,"state_and_msa":"Columbia, SC"},{"area_code":17980,"state_and_msa":"Columbus, GA"},{"area_code":18020,"state_and_msa":"Columbus, IN"},{"area_code":18140,"state_and_msa":"Columbus, OH"},{"area_code":900001,"state_and_msa":"Connecticut nonmetropolitan area, CT"},{"area_code":18580,"state_and_msa":"Corpus Christi, TX"},{"area_code":18700,"state_and_msa":"Corvallis, OR"},{"area_code":18880,"state_and_msa":"Crestview-Fort Walton Beach-Destin, FL"},{"area_code":19060,"state_and_msa":"Cumberland, MD"},{"area_code":19100,"state_and_msa":"Dallas-Fort Worth-Arlington, TX"},{"area_code":19140,"state_and_msa":"Dalton, GA"},{"area_code":72850,"state_and_msa":"Danbury, CT"},{"area_code":19180,"state_and_msa":"Danville, IL"},{"area_code":19300,"state_and_msa":"Daphne-Fairhope-Foley, AL"},{"area_code":19340,"state_and_msa":"Davenport-Moline-Rock Island, IA"},{"area_code":19380,"state_and_msa":"Dayton, OH"},{"area_code":19460,"state_and_msa":"Decatur, AL"},{"area_code":19500,"state_and_msa":"Decatur, IL"},{"area_code":19660,"state_and_msa":"Deltona-Daytona Beach-Ormond Beach, FL"},{"area_code":19740,"state_and_msa":"Denver-Aurora-Lakewood, CO"},{"area_code":19780,"state_and_msa":"Des Moines-West Des Moines, IA"},{"area_code":19820,"state_and_msa":"Detroit-Warren-Dearborn, MI"},{"area_code":20020,"state_and_msa":"Dothan, AL"},{"area_code":20100,"state_and_msa":"Dover, DE"},{"area_code":73050,"state_and_msa":"Dover-Durham, NH"},{"area_code":20220,"state_and_msa":"Dubuque, IA"},{"area_code":20260,"state_and_msa":"Duluth, MN"},{"area_code":20500,"state_and_msa":"Durham-Chapel Hill, NC"},{"area_code":500002,"state_and_msa":"East Arkansas nonmetropolitan area, AR"},{"area_code":1700003,"state_and_msa":"East Central Illinois nonmetropolitan area, IL"},{"area_code":1300003,"state_and_msa":"East Georgia nonmetropolitan area, GA"},{"area_code":2100004,"state_and_msa":"East Kentucky nonmetropolitan area, KY"},{"area_code":3800007,"state_and_msa":"East North Dakota nonmetropolitan area, ND"},{"area_code":4600002,"state_and_msa":"East South Dakota nonmetropolitan area, SD"},{"area_code":20700,"state_and_msa":"East Stroudsburg, PA"},{"area_code":4700004,"state_and_msa":"East Tennessee nonmetropolitan area, TN"},{"area_code":3000006,"state_and_msa":"East-Central Montana nonmetropolitan area, MT"},{"area_code":3500007,"state_and_msa":"Eastern New Mexico nonmetropolitan area, NM"},{"area_code":3900003,"state_and_msa":"Eastern Ohio nonmetropolitan area, OH"},{"area_code":4100008,"state_and_msa":"Eastern Oregon nonmetropolitan area, OR"},{"area_code":600006,"state_and_msa":"Eastern Sierra-Mother Lode Region of California nonmetropolitan area, CA"},{"area_code":4900006,"state_and_msa":"Eastern Utah nonmetropolitan area, UT"},{"area_code":5300007,"state_and_msa":"Eastern Washington nonmetropolitan area, WA"},{"area_code":5600007,"state_and_msa":"Eastern Wyoming nonmetropolitan area, WY"},{"area_code":800001,"state_and_msa":"Eastern and Southern Colorado nonmetropolitan area, CO"},{"area_code":20740,"state_and_msa":"Eau Claire, WI"},{"area_code":20940,"state_and_msa":"El Centro, CA"},{"area_code":21340,"state_and_msa":"El Paso, TX"},{"area_code":21060,"state_and_msa":"Elizabethtown-Fort Knox, KY"},{"area_code":21140,"state_and_msa":"Elkhart-Goshen, IN"},{"area_code":21300,"state_and_msa":"Elmira, NY"},{"area_code":21420,"state_and_msa":"Enid, OK"},{"area_code":21500,"state_and_msa":"Erie, PA"},{"area_code":21660,"state_and_msa":"Eugene, OR"},{"area_code":21780,"state_and_msa":"Evansville, IN"},{"area_code":21820,"state_and_msa":"Fairbanks, AK"},{"area_code":22020,"state_and_msa":"Fargo, ND"},{"area_code":22140,"state_and_msa":"Farmington, NM"},{"area_code":22180,"state_and_msa":"Fayetteville, NC"},{"area_code":22220,"state_and_msa":"Fayetteville-Springdale-Rogers, AR"},{"area_code":22380,"state_and_msa":"Flagstaff, AZ"},{"area_code":22420,"state_and_msa":"Flint, MI"},{"area_code":22500,"state_and_msa":"Florence, SC"},{"area_code":22520,"state_and_msa":"Florence-Muscle Shoals, AL"},{"area_code":22540,"state_and_msa":"Fond du Lac, WI"},{"area_code":22660,"state_and_msa":"Fort Collins, CO"},{"area_code":22900,"state_and_msa":"Fort Smith, AR"},{"area_code":23060,"state_and_msa":"Fort Wayne, IN"},{"area_code":23420,"state_and_msa":"Fresno, CA"},{"area_code":23460,"state_and_msa":"Gadsden, AL"},{"area_code":23540,"state_and_msa":"Gainesville, FL"},{"area_code":23580,"state_and_msa":"Gainesville, GA"},{"area_code":23900,"state_and_msa":"Gettysburg, PA"},{"area_code":24020,"state_and_msa":"Glens Falls, NY"},{"area_code":24140,"state_and_msa":"Goldsboro, NC"},{"area_code":24220,"state_and_msa":"Grand Forks, ND"},{"area_code":24260,"state_and_msa":"Grand Island, NE"},{"area_code":24300,"state_and_msa":"Grand Junction, CO"},{"area_code":24340,"state_and_msa":"Grand Rapids-Wyoming, MI"},{"area_code":24420,"state_and_msa":"Grants Pass, OR"},{"area_code":24500,"state_and_msa":"Great Falls, MT"},{"area_code":24540,"state_and_msa":"Greeley, CO"},{"area_code":24580,"state_and_msa":"Green Bay, WI"},{"area_code":24660,"state_and_msa":"Greensboro-High Point, NC"},{"area_code":24780,"state_and_msa":"Greenville, NC"},{"area_code":24860,"state_and_msa":"Greenville-Anderson-Mauldin, SC"},{"area_code":25060,"state_and_msa":"Gulfport-Biloxi-Pascagoula, MS"},{"area_code":25180,"state_and_msa":"Hagerstown-Martinsburg, MD"},{"area_code":25220,"state_and_msa":"Hammond, LA"},{"area_code":25260,"state_and_msa":"Hanford-Corcoran, CA"},{"area_code":25420,"state_and_msa":"Harrisburg-Carlisle, PA"},{"area_code":25500,"state_and_msa":"Harrisonburg, VA"},{"area_code":73450,"state_and_msa":"Hartford-West Hartford-East Hartford, CT"},{"area_code":25620,"state_and_msa":"Hattiesburg, MS"},{"area_code":1500001,"state_and_msa":"Hawaii \/ Kauai nonmetropolitan area, HI"},{"area_code":25860,"state_and_msa":"Hickory-Lenoir-Morganton, NC"},{"area_code":4800004,"state_and_msa":"Hill Country Region of Texas nonmetropolitan area, TX"},{"area_code":25940,"state_and_msa":"Hilton Head Island-Bluffton-Beaufort, SC"},{"area_code":25980,"state_and_msa":"Hinesville, GA"},{"area_code":26140,"state_and_msa":"Homosassa Springs, FL"},{"area_code":26300,"state_and_msa":"Hot Springs, AR"},{"area_code":26380,"state_and_msa":"Houma-Thibodaux, LA"},{"area_code":26420,"state_and_msa":"Houston-The Woodlands-Sugar Land, TX"},{"area_code":26580,"state_and_msa":"Huntington-Ashland, WV"},{"area_code":26620,"state_and_msa":"Huntsville, AL"},{"area_code":26820,"state_and_msa":"Idaho Falls, ID"},{"area_code":26900,"state_and_msa":"Indianapolis-Carmel-Anderson, IN"},{"area_code":26980,"state_and_msa":"Iowa City, IA"},{"area_code":27060,"state_and_msa":"Ithaca, NY"},{"area_code":27100,"state_and_msa":"Jackson, MI"},{"area_code":27140,"state_and_msa":"Jackson, MS"},{"area_code":27180,"state_and_msa":"Jackson, TN"},{"area_code":27260,"state_and_msa":"Jacksonville, FL"},{"area_code":27340,"state_and_msa":"Jacksonville, NC"},{"area_code":27500,"state_and_msa":"Janesville-Beloit, WI"},{"area_code":27620,"state_and_msa":"Jefferson City, MO"},{"area_code":27740,"state_and_msa":"Johnson City, TN"},{"area_code":27780,"state_and_msa":"Johnstown, PA"},{"area_code":27860,"state_and_msa":"Jonesboro, AR"},{"area_code":27900,"state_and_msa":"Joplin, MO"},{"area_code":27980,"state_and_msa":"Kahului-Wailuku-Lahaina, HI"},{"area_code":28020,"state_and_msa":"Kalamazoo-Portage, MI"},{"area_code":28100,"state_and_msa":"Kankakee, IL"},{"area_code":28140,"state_and_msa":"Kansas City, MO"},{"area_code":2000006,"state_and_msa":"Kansas nonmetropolitan area, KS"},{"area_code":28420,"state_and_msa":"Kennewick-Richland, WA"},{"area_code":28660,"state_and_msa":"Killeen-Temple, TX"},{"area_code":28700,"state_and_msa":"Kingsport-Bristol-Bristol, TN"},{"area_code":28740,"state_and_msa":"Kingston, NY"},{"area_code":28940,"state_and_msa":"Knoxville, TN"},{"area_code":29020,"state_and_msa":"Kokomo, IN"},{"area_code":29100,"state_and_msa":"La Crosse-Onalaska, WI"},{"area_code":29180,"state_and_msa":"Lafayette, LA"},{"area_code":29200,"state_and_msa":"Lafayette-West Lafayette, IN"},{"area_code":29340,"state_and_msa":"Lake Charles, LA"},{"area_code":29420,"state_and_msa":"Lake Havasu City-Kingman, AZ"},{"area_code":29460,"state_and_msa":"Lakeland-Winter Haven, FL"},{"area_code":29540,"state_and_msa":"Lancaster, PA"},{"area_code":29620,"state_and_msa":"Lansing-East Lansing, MI"},{"area_code":29700,"state_and_msa":"Laredo, TX"},{"area_code":29740,"state_and_msa":"Las Cruces, NM"},{"area_code":29820,"state_and_msa":"Las Vegas-Henderson-Paradise, NV"},{"area_code":29940,"state_and_msa":"Lawrence, KS"},{"area_code":30020,"state_and_msa":"Lawton, OK"},{"area_code":30140,"state_and_msa":"Lebanon, PA"},{"area_code":74500,"state_and_msa":"Leominster-Gardner, MA"},{"area_code":30300,"state_and_msa":"Lewiston, ID"},{"area_code":74650,"state_and_msa":"Lewiston-Auburn, ME"},{"area_code":30460,"state_and_msa":"Lexington-Fayette, KY"},{"area_code":30620,"state_and_msa":"Lima, OH"},{"area_code":30700,"state_and_msa":"Lincoln, NE"},{"area_code":30780,"state_and_msa":"Little Rock-North Little Rock-Conway, AR"},{"area_code":30860,"state_and_msa":"Logan, UT"},{"area_code":30980,"state_and_msa":"Longview, TX"},{"area_code":31020,"state_and_msa":"Longview, WA"},{"area_code":31080,"state_and_msa":"Los Angeles-Long Beach-Anaheim, CA"},{"area_code":31140,"state_and_msa":"Louisville\/Jefferson County, KY"},{"area_code":4500004,"state_and_msa":"Lower Savannah South Carolina nonmetropolitan area, SC"},{"area_code":31180,"state_and_msa":"Lubbock, TX"},{"area_code":31340,"state_and_msa":"Lynchburg, VA"},{"area_code":31420,"state_and_msa":"Macon, GA"},{"area_code":31460,"state_and_msa":"Madera, CA"},{"area_code":31540,"state_and_msa":"Madison, WI"},{"area_code":74950,"state_and_msa":"Manchester, NH"},{"area_code":31740,"state_and_msa":"Manhattan, KS"},{"area_code":31860,"state_and_msa":"Mankato-North Mankato, MN"},{"area_code":31900,"state_and_msa":"Mansfield, OH"},{"area_code":2400006,"state_and_msa":"Maryland nonmetropolitan area, MD"},{"area_code":2500006,"state_and_msa":"Massachusetts nonmetropolitan area, MA"},{"area_code":32580,"state_and_msa":"McAllen-Edinburg-Mission, TX"},{"area_code":32780,"state_and_msa":"Medford, OR"},{"area_code":32820,"state_and_msa":"Memphis, TN"},{"area_code":32900,"state_and_msa":"Merced, CA"},{"area_code":33100,"state_and_msa":"Miami-Fort Lauderdale-West Palm Beach, FL"},{"area_code":33140,"state_and_msa":"Michigan City-La Porte, IN"},{"area_code":1300002,"state_and_msa":"Middle Georgia nonmetropolitan area, GA"},{"area_code":33220,"state_and_msa":"Midland, MI"},{"area_code":33260,"state_and_msa":"Midland, TX"},{"area_code":33340,"state_and_msa":"Milwaukee-Waukesha-West Allis, WI"},{"area_code":33460,"state_and_msa":"Minneapolis-St. Paul-Bloomington, MN"},{"area_code":33540,"state_and_msa":"Missoula, MT"},{"area_code":33660,"state_and_msa":"Mobile, AL"},{"area_code":33700,"state_and_msa":"Modesto, CA"},{"area_code":33740,"state_and_msa":"Monroe, LA"},{"area_code":33780,"state_and_msa":"Monroe, MI"},{"area_code":33860,"state_and_msa":"Montgomery, AL"},{"area_code":34060,"state_and_msa":"Morgantown, WV"},{"area_code":34100,"state_and_msa":"Morristown, TN"},{"area_code":34580,"state_and_msa":"Mount Vernon-Anacortes, WA"},{"area_code":3700004,"state_and_msa":"Mountain North Carolina nonmetropolitan area, NC"},{"area_code":34620,"state_and_msa":"Muncie, IN"},{"area_code":34740,"state_and_msa":"Muskegon, MI"},{"area_code":34820,"state_and_msa":"Myrtle Beach-Conway-North Myrtle Beach, SC"},{"area_code":34900,"state_and_msa":"Napa, CA"},{"area_code":34940,"state_and_msa":"Naples-Immokalee-Marco Island, FL"},{"area_code":34980,"state_and_msa":"Nashville-Davidson--Murfreesboro--Franklin, TN"},{"area_code":3200006,"state_and_msa":"Nevada nonmetropolitan area, NV"},{"area_code":75550,"state_and_msa":"New Bedford, MA"},{"area_code":35100,"state_and_msa":"New Bern, NC"},{"area_code":75700,"state_and_msa":"New Haven, CT"},{"area_code":35380,"state_and_msa":"New Orleans-Metairie, LA"},{"area_code":35620,"state_and_msa":"New York-Newark-Jersey City, NY"},{"area_code":35660,"state_and_msa":"Niles-Benton Harbor, MI"},{"area_code":500001,"state_and_msa":"North Arkansas nonmetropolitan area, AR"},{"area_code":4700003,"state_and_msa":"North Central Tennessee nonmetropolitan area, TN"},{"area_code":600003,"state_and_msa":"North Coast Region of California nonmetropolitan area, CA"},{"area_code":1200006,"state_and_msa":"North Florida nonmetropolitan area, FL"},{"area_code":1300001,"state_and_msa":"North Georgia nonmetropolitan area, GA"},{"area_code":2900002,"state_and_msa":"North Missouri nonmetropolitan area, MO"},{"area_code":3900002,"state_and_msa":"North Northeastern Ohio non-metropolitan area (non-contiguous), OH"},{"area_code":35840,"state_and_msa":"North Port-Sarasota-Bradenton, FL"},{"area_code":4800002,"state_and_msa":"North Texas Region of Texas nonmetropolitan area, TX"},{"area_code":600007,"state_and_msa":"North Valley-Northern Mountains Region of California nonmetropolitan area, CA"},{"area_code":100002,"state_and_msa":"Northeast Alabama nonmetropolitan area, AL"},{"area_code":3700002,"state_and_msa":"Northeast Coastal North Carolina nonmetropolitan area, NC"},{"area_code":1900001,"state_and_msa":"Northeast Iowa nonmetropolitan area, IA"},{"area_code":2200003,"state_and_msa":"Northeast Louisiana nonmetropolitan area, LA"},{"area_code":2600002,"state_and_msa":"Northeast Lower Peninsula of Michigan nonmetropolitan area, MI"},{"area_code":2300001,"state_and_msa":"Northeast Maine nonmetropolitan area, ME"},{"area_code":2700002,"state_and_msa":"Northeast Minnesota nonmetropolitan area, MN"},{"area_code":2800001,"state_and_msa":"Northeast Mississippi nonmetropolitan area, MS"},{"area_code":3100003,"state_and_msa":"Northeast Nebraska nonmetropolitan area, NE"},{"area_code":4000001,"state_and_msa":"Northeast Oklahoma nonmetropolitan area, OK"},{"area_code":4500006,"state_and_msa":"Northeast South Carolina nonmetropolitan area, SC"},{"area_code":5100003,"state_and_msa":"Northeast Virginia nonmetropolitan area, VA"},{"area_code":5500002,"state_and_msa":"Northeastern Wisconsin nonmetropolitan area, WI"},{"area_code":1800001,"state_and_msa":"Northern Indiana nonmetropolitan area, IN"},{"area_code":3300001,"state_and_msa":"Northern New Hampshire nonmetropolitan area, NH"},{"area_code":3500006,"state_and_msa":"Northern New Mexico nonmetropolitan area, NM"},{"area_code":4200002,"state_and_msa":"Northern Pennsylvania nonmetropolitan area, PA"},{"area_code":5000002,"state_and_msa":"Northern Vermont nonmetropolitan area, VT"},{"area_code":5400002,"state_and_msa":"Northern West Virginia nonmetropolitan area, WV"},{"area_code":100001,"state_and_msa":"Northwest Alabama nonmetropolitan area, AL"},{"area_code":800003,"state_and_msa":"Northwest Colorado nonmetropolitan area, CO"},{"area_code":1700001,"state_and_msa":"Northwest Illinois nonmetropolitan area, IL"},{"area_code":1900002,"state_and_msa":"Northwest Iowa nonmetropolitan area, IA"},{"area_code":2600003,"state_and_msa":"Northwest Lower Peninsula of Michigan nonmetropolitan area, MI"},{"area_code":2700001,"state_and_msa":"Northwest Minnesota nonmetropolitan area, MN"},{"area_code":2800002,"state_and_msa":"Northwest Mississippi nonmetropolitan area, MS"},{"area_code":3100001,"state_and_msa":"Northwest Nebraska nonmetropolitan area, NE"},{"area_code":4000002,"state_and_msa":"Northwest Oklahoma nonmetropolitan area, OK"},{"area_code":5100004,"state_and_msa":"Northwest Virginia nonmetropolitan area, VA"},{"area_code":1600006,"state_and_msa":"Northwestern Idaho nonmetropolitan area, ID"},{"area_code":5500001,"state_and_msa":"Northwestern Wisconsin nonmetropolitan area, WI"},{"area_code":76450,"state_and_msa":"Norwich-New London-Westerly, CT"},{"area_code":36100,"state_and_msa":"Ocala, FL"},{"area_code":36140,"state_and_msa":"Ocean City, NJ"},{"area_code":36220,"state_and_msa":"Odessa, TX"},{"area_code":36260,"state_and_msa":"Ogden-Clearfield, UT"},{"area_code":36420,"state_and_msa":"Oklahoma City, OK"},{"area_code":36500,"state_and_msa":"Olympia-Tumwater, WA"},{"area_code":36540,"state_and_msa":"Omaha-Council Bluffs, NE"},{"area_code":36740,"state_and_msa":"Orlando-Kissimmee-Sanford, FL"},{"area_code":36780,"state_and_msa":"Oshkosh-Neenah, WI"},{"area_code":36980,"state_and_msa":"Owensboro, KY"},{"area_code":37100,"state_and_msa":"Oxnard-Thousand Oaks-Ventura, CA"},{"area_code":37340,"state_and_msa":"Palm Bay-Melbourne-Titusville, FL"},{"area_code":37460,"state_and_msa":"Panama City, FL"},{"area_code":37620,"state_and_msa":"Parkersburg-Vienna, WV"},{"area_code":37860,"state_and_msa":"Pensacola-Ferry Pass-Brent, FL"},{"area_code":37900,"state_and_msa":"Peoria, IL"},{"area_code":37980,"state_and_msa":"Philadelphia-Camden-Wilmington, PA"},{"area_code":38060,"state_and_msa":"Phoenix-Mesa-Scottsdale, AZ"},{"area_code":3700003,"state_and_msa":"Piedmont North Carolina nonmetropolitan area, NC"},{"area_code":38220,"state_and_msa":"Pine Bluff, AR"},{"area_code":38300,"state_and_msa":"Pittsburgh, PA"},{"area_code":76600,"state_and_msa":"Pittsfield, MA"},{"area_code":38540,"state_and_msa":"Pocatello, ID"},{"area_code":38940,"state_and_msa":"Port St. Lucie, FL"},{"area_code":76750,"state_and_msa":"Portland-South Portland, ME"},{"area_code":38900,"state_and_msa":"Portland-Vancouver-Hillsboro, OR"},{"area_code":76900,"state_and_msa":"Portsmouth, NH"},{"area_code":39140,"state_and_msa":"Prescott, AZ"},{"area_code":77200,"state_and_msa":"Providence-Warwick, RI"},{"area_code":39340,"state_and_msa":"Provo-Orem, UT"},{"area_code":39380,"state_and_msa":"Pueblo, CO"},{"area_code":39460,"state_and_msa":"Punta Gorda, FL"},{"area_code":39540,"state_and_msa":"Racine, WI"},{"area_code":39580,"state_and_msa":"Raleigh, NC"},{"area_code":39660,"state_and_msa":"Rapid City, SD"},{"area_code":39740,"state_and_msa":"Reading, PA"},{"area_code":39820,"state_and_msa":"Redding, CA"},{"area_code":39900,"state_and_msa":"Reno, NV"},{"area_code":40060,"state_and_msa":"Richmond, VA"},{"area_code":40140,"state_and_msa":"Riverside-San Bernardino-Ontario, CA"},{"area_code":40220,"state_and_msa":"Roanoke, VA"},{"area_code":40340,"state_and_msa":"Rochester, MN"},{"area_code":40380,"state_and_msa":"Rochester, NY"},{"area_code":40420,"state_and_msa":"Rockford, IL"},{"area_code":40580,"state_and_msa":"Rocky Mount, NC"},{"area_code":40660,"state_and_msa":"Rome, GA"},{"area_code":40900,"state_and_msa":"Sacramento--Roseville--Arden-Arcade, CA"},{"area_code":40980,"state_and_msa":"Saginaw, MI"},{"area_code":41420,"state_and_msa":"Salem, OR"},{"area_code":41500,"state_and_msa":"Salinas, CA"},{"area_code":41540,"state_and_msa":"Salisbury, MD"},{"area_code":41620,"state_and_msa":"Salt Lake City, UT"},{"area_code":41660,"state_and_msa":"San Angelo, TX"},{"area_code":41700,"state_and_msa":"San Antonio-New Braunfels, TX"},{"area_code":41740,"state_and_msa":"San Diego-Carlsbad, CA"},{"area_code":41860,"state_and_msa":"San Francisco-Oakland-Hayward, CA"},{"area_code":41940,"state_and_msa":"San Jose-Sunnyvale-Santa Clara, CA"},{"area_code":42020,"state_and_msa":"San Luis Obispo-Paso Robles-Arroyo Grande, CA"},{"area_code":42100,"state_and_msa":"Santa Cruz-Watsonville, CA"},{"area_code":42140,"state_and_msa":"Santa Fe, NM"},{"area_code":42200,"state_and_msa":"Santa Maria-Santa Barbara, CA"},{"area_code":42220,"state_and_msa":"Santa Rosa, CA"},{"area_code":42340,"state_and_msa":"Savannah, GA"},{"area_code":42540,"state_and_msa":"Scranton--Wilkes-Barre--Hazleton, PA"},{"area_code":42660,"state_and_msa":"Seattle-Tacoma-Bellevue, WA"},{"area_code":42680,"state_and_msa":"Sebastian-Vero Beach, FL"},{"area_code":42700,"state_and_msa":"Sebring, FL"},{"area_code":43100,"state_and_msa":"Sheboygan, WI"},{"area_code":43300,"state_and_msa":"Sherman-Denison, TX"},{"area_code":43340,"state_and_msa":"Shreveport-Bossier City, LA"},{"area_code":43420,"state_and_msa":"Sierra Vista-Douglas, AZ"},{"area_code":43580,"state_and_msa":"Sioux City, IA"},{"area_code":43620,"state_and_msa":"Sioux Falls, SD"},{"area_code":500004,"state_and_msa":"South Arkansas nonmetropolitan area, AR"},{"area_code":43780,"state_and_msa":"South Bend-Mishawaka, IN"},{"area_code":2100002,"state_and_msa":"South Central Kentucky nonmetropolitan area, KY"},{"area_code":4700002,"state_and_msa":"South Central Tennessee nonmetropolitan area, TN"},{"area_code":5500003,"state_and_msa":"South Central Wisconsin nonmetropolitan area, WI"},{"area_code":1200003,"state_and_msa":"South Florida nonmetropolitan area, FL"},{"area_code":1300004,"state_and_msa":"South Georgia nonmetropolitan area, GA"},{"area_code":1700004,"state_and_msa":"South Illinois nonmetropolitan area, IL"},{"area_code":3100006,"state_and_msa":"South Nebraska nonmetropolitan area, NE"},{"area_code":100004,"state_and_msa":"Southeast Alabama nonmetropolitan area, AL"},{"area_code":3700001,"state_and_msa":"Southeast Coastal North Carolina nonmetropolitan area, NC"},{"area_code":1900004,"state_and_msa":"Southeast Iowa nonmetropolitan area, IA"},{"area_code":2700004,"state_and_msa":"Southeast Minnesota nonmetropolitan area, MN"},{"area_code":2800003,"state_and_msa":"Southeast Mississippi nonmetropolitan area, MS"},{"area_code":2900003,"state_and_msa":"Southeast Missouri nonmetropolitan area, MO"},{"area_code":4000004,"state_and_msa":"Southeast Oklahoma nonmetropolitan area, OK"},{"area_code":1600007,"state_and_msa":"Southeast-Central Idaho nonmetropolitan area, ID"},{"area_code":1800003,"state_and_msa":"Southern Indiana nonmetropolitan area, IN"},{"area_code":3900004,"state_and_msa":"Southern Ohio non-metropolitan area, OH"},{"area_code":4200003,"state_and_msa":"Southern Pennsylvania nonmetropolitan area, PA"},{"area_code":5000001,"state_and_msa":"Southern Vermont nonmetropolitan area, VT"},{"area_code":5400001,"state_and_msa":"Southern West Virginia nonmetropolitan area, WV"},{"area_code":5100002,"state_and_msa":"Southside Virginia nonmetropolitan area, VA"},{"area_code":100003,"state_and_msa":"Southwest Alabama nonmetropolitan area, AL"},{"area_code":800002,"state_and_msa":"Southwest Colorado nonmetropolitan area, CO"},{"area_code":1900003,"state_and_msa":"Southwest Iowa nonmetropolitan area, IA"},{"area_code":2200006,"state_and_msa":"Southwest Louisiana nonmetropolitan area, LA"},{"area_code":2300002,"state_and_msa":"Southwest Maine nonmetropolitan area, ME"},{"area_code":2700003,"state_and_msa":"Southwest Minnesota nonmetropolitan area, MN"},{"area_code":2800004,"state_and_msa":"Southwest Mississippi nonmetropolitan area, MS"},{"area_code":2900004,"state_and_msa":"Southwest Missouri nonmetropolitan area, MO"},{"area_code":3000003,"state_and_msa":"Southwest Montana nonmetropolitan area, MT"},{"area_code":3600004,"state_and_msa":"Southwest New York nonmetropolitan area, NY"},{"area_code":4000003,"state_and_msa":"Southwest Oklahoma nonmetropolitan area, OK"},{"area_code":5100001,"state_and_msa":"Southwest Virginia nonmetropolitan area, VA"},{"area_code":43900,"state_and_msa":"Spartanburg, SC"},{"area_code":44060,"state_and_msa":"Spokane-Spokane Valley, WA"},{"area_code":44100,"state_and_msa":"Springfield, IL"},{"area_code":78100,"state_and_msa":"Springfield, MA"},{"area_code":44180,"state_and_msa":"Springfield, MO"},{"area_code":44220,"state_and_msa":"Springfield, OH"},{"area_code":41060,"state_and_msa":"St. Cloud, MN"},{"area_code":41100,"state_and_msa":"St. George, UT"},{"area_code":41140,"state_and_msa":"St. Joseph, MO"},{"area_code":41180,"state_and_msa":"St. Louis, MO"},{"area_code":44300,"state_and_msa":"State College, PA"},{"area_code":44420,"state_and_msa":"Staunton-Waynesboro, VA"},{"area_code":44700,"state_and_msa":"Stockton-Lodi, CA"},{"area_code":44940,"state_and_msa":"Sumter, SC"},{"area_code":45060,"state_and_msa":"Syracuse, NY"},{"area_code":45220,"state_and_msa":"Tallahassee, FL"},{"area_code":45300,"state_and_msa":"Tampa-St. Petersburg-Clearwater, FL"},{"area_code":45460,"state_and_msa":"Terre Haute, IN"},{"area_code":45500,"state_and_msa":"Texarkana, TX"},{"area_code":45540,"state_and_msa":"The Villages, FL"},{"area_code":45780,"state_and_msa":"Toledo, OH"},{"area_code":45820,"state_and_msa":"Topeka, KS"},{"area_code":45940,"state_and_msa":"Trenton, NJ"},{"area_code":46060,"state_and_msa":"Tucson, AZ"},{"area_code":46140,"state_and_msa":"Tulsa, OK"},{"area_code":46220,"state_and_msa":"Tuscaloosa, AL"},{"area_code":46340,"state_and_msa":"Tyler, TX"},{"area_code":2600001,"state_and_msa":"Upper Peninsula of Michigan nonmetropolitan area, MI"},{"area_code":4500002,"state_and_msa":"Upper Savannah South Carolina nonmetropolitan area, SC"},{"area_code":46520,"state_and_msa":"Urban Honolulu, HI"},{"area_code":46540,"state_and_msa":"Utica-Rome, NY"},{"area_code":46660,"state_and_msa":"Valdosta, GA"},{"area_code":46700,"state_and_msa":"Vallejo-Fairfield, CA"},{"area_code":47020,"state_and_msa":"Victoria, TX"},{"area_code":47220,"state_and_msa":"Vineland-Bridgeton, NJ"},{"area_code":47260,"state_and_msa":"Virginia Beach-Norfolk-Newport News, VA"},{"area_code":47300,"state_and_msa":"Visalia-Porterville, CA"},{"area_code":47380,"state_and_msa":"Waco, TX"},{"area_code":47460,"state_and_msa":"Walla Walla, WA"},{"area_code":47580,"state_and_msa":"Warner Robins, GA"},{"area_code":47900,"state_and_msa":"Washington-Arlington-Alexandria, DC"},{"area_code":78700,"state_and_msa":"Waterbury, CT"},{"area_code":47940,"state_and_msa":"Waterloo-Cedar Falls, IA"},{"area_code":48060,"state_and_msa":"Watertown-Fort Drum, NY"},{"area_code":48140,"state_and_msa":"Wausau, WI"},{"area_code":48260,"state_and_msa":"Weirton-Steubenville, WV"},{"area_code":48300,"state_and_msa":"Wenatchee, WA"},{"area_code":500003,"state_and_msa":"West Arkansas nonmetropolitan area, AR"},{"area_code":1700002,"state_and_msa":"West Central Illinois nonmetropolitan area, IL"},{"area_code":3300006,"state_and_msa":"West Central-Southwest New Hampshire nonmetropolitan area, NH"},{"area_code":2100001,"state_and_msa":"West Kentucky nonmetropolitan area, KY"},{"area_code":3000004,"state_and_msa":"West Montana nonmetropolitan area, MT"},{"area_code":3800006,"state_and_msa":"West North Dakota nonmetropolitan area, ND"},{"area_code":3900001,"state_and_msa":"West Northwestern Ohio nonmetropolitan area, OH"},{"area_code":4600003,"state_and_msa":"West South Dakota nonmetropolitan area, SD"},{"area_code":4700001,"state_and_msa":"West Tennessee nonmetropolitan area, TN"},{"area_code":4800001,"state_and_msa":"West Texas Region of Texas nonmetropolitan area, TX"},{"area_code":4200001,"state_and_msa":"Western Pennsylvania nonmetropolitan area, PA"},{"area_code":5300006,"state_and_msa":"Western Washington nonmetropolitan area, WA"},{"area_code":5500004,"state_and_msa":"Western Wisconsin nonmetropolitan area, WI"},{"area_code":5600006,"state_and_msa":"Western Wyoming nonmetropolitan area, WY"},{"area_code":48540,"state_and_msa":"Wheeling, WV"},{"area_code":48660,"state_and_msa":"Wichita Falls, TX"},{"area_code":48620,"state_and_msa":"Wichita, KS"},{"area_code":48700,"state_and_msa":"Williamsport, PA"},{"area_code":48900,"state_and_msa":"Wilmington, NC"},{"area_code":49020,"state_and_msa":"Winchester, VA"},{"area_code":49180,"state_and_msa":"Winston-Salem, NC"},{"area_code":79600,"state_and_msa":"Worcester, MA"},{"area_code":49420,"state_and_msa":"Yakima, WA"},{"area_code":49620,"state_and_msa":"York-Hanover, PA"},{"area_code":49660,"state_and_msa":"Youngstown-Warren-Boardman, OH"},{"area_code":49700,"state_and_msa":"Yuba City, CA"},{"area_code":49740,"state_and_msa":"Yuma, AZ"}]